CCSDS_OMM_VERS = 2.0
CREATION_DATE  = 
ORIGINATOR     = 

OBJECT_NAME    = CZ-5 R/B
OBJECT_ID      = 2025-306B
CENTER_NAME    = EARTH
REF_FRAME      = TEME
TIME_SYSTEM    = UTC
MEAN_ELEMENT_THEORY = SGP/SGP4

EPOCH          = 2025-12-20T19:22:03.368352
MEAN_MOTION    = 1.92163474
ECCENTRICITY   = .75788222
INCLINATION    = 16.4229
RA_OF_ASC_NODE = 298.9498
ARG_OF_PERICENTER = 179.0262
MEAN_ANOMALY   = 184.9269

EPHEMERIS_TYPE = 0
CLASSIFICATION_TYPE = U
NORAD_CAT_ID   = 67227
ELEMENT_SET_NO = 999
REV_AT_EPOCH   = 2
BSTAR          = .48545663E-3
MEAN_MOTION_DOT = .1201E-4
MEAN_MOTION_DDOT = 0

CCSDS_OMM_VERS = 2.0
CREATION_DATE  = 
ORIGINATOR     = 

OBJECT_NAME    = QPS-SAR-15
OBJECT_ID      = 2025-307A
CENTER_NAME    = EARTH
REF_FRAME      = TEME
TIME_SYSTEM    = UTC
MEAN_ELEMENT_THEORY = SGP/SGP4

EPOCH          = 2025-12-24T15:12:58.225536
MEAN_MOTION    = 14.97075685
ECCENTRICITY   = .00101278
INCLINATION    = 42.0067
RA_OF_ASC_NODE = 105.1986
ARG_OF_PERICENTER = 288.6149
MEAN_ANOMALY   = 71.3576

EPHEMERIS_TYPE = 0
CLASSIFICATION_TYPE = U
NORAD_CAT_ID   = 67228
ELEMENT_SET_NO = 999
REV_AT_EPOCH   = 50
BSTAR          = .51259096E-3
MEAN_MOTION_DOT = .5837E-4
MEAN_MOTION_DDOT = 0

CCSDS_OMM_VERS = 2.0
CREATION_DATE  = 
ORIGINATOR     = 

OBJECT_NAME    = ELECTRON KICK STAGE R/B
OBJECT_ID      = 2025-307B
CENTER_NAME    = EARTH
REF_FRAME      = TEME
TIME_SYSTEM    = UTC
MEAN_ELEMENT_THEORY = SGP/SGP4

EPOCH          = 2025-12-24T13:48:14.301792
MEAN_MOTION    = 15.55758318
ECCENTRICITY   = .02455668
INCLINATION    = 42.0011
RA_OF_ASC_NODE = 103.8717
ARG_OF_PERICENTER = 260.0320
MEAN_ANOMALY   = 97.2731

EPHEMERIS_TYPE = 0
CLASSIFICATION_TYPE = U
NORAD_CAT_ID   = 67229
ELEMENT_SET_NO = 999
REV_AT_EPOCH   = 51
BSTAR          = .14822418E-2
MEAN_MOTION_DOT = .454501E-2
MEAN_MOTION_DDOT = .61387959E-4

CCSDS_OMM_VERS = 2.0
CREATION_DATE  = 
ORIGINATOR     = 

OBJECT_NAME    = ELECTRON R/B
OBJECT_ID      = 2025-307C
CENTER_NAME    = EARTH
REF_FRAME      = TEME
TIME_SYSTEM    = UTC
MEAN_ELEMENT_THEORY = SGP/SGP4

EPOCH          = 2025-12-21T08:41:59.140320
MEAN_MOTION    = 15.55087105
ECCENTRICITY   = .02614087
INCLINATION    = 41.9820
RA_OF_ASC_NODE = 123.1026
ARG_OF_PERICENTER = 268.1410
MEAN_ANOMALY   = 88.9482

EPHEMERIS_TYPE = 0
CLASSIFICATION_TYPE = U
NORAD_CAT_ID   = 67230
ELEMENT_SET_NO = 999
REV_AT_EPOCH   = 1
BSTAR          = .20247584E-3
MEAN_MOTION_DOT = .71881E-3
MEAN_MOTION_DDOT = .8106877E-5

CCSDS_OMM_VERS = 2.0
CREATION_DATE  = 
ORIGINATOR     = 

OBJECT_NAME    = 2025-308A
OBJECT_ID      = 2025-308A
CENTER_NAME    = EARTH
REF_FRAME      = TEME
TIME_SYSTEM    = UTC
MEAN_ELEMENT_THEORY = SGP/SGP4

EPOCH          = 2025-12-25T02:26:22.274880
MEAN_MOTION    = 16.23030612
ECCENTRICITY   = .0024141
INCLINATION    = 69.7078
RA_OF_ASC_NODE = 57.7078
ARG_OF_PERICENTER = 150.5925
MEAN_ANOMALY   = 209.6660

EPHEMERIS_TYPE = 0
CLASSIFICATION_TYPE = U
NORAD_CAT_ID   = 67231
ELEMENT_SET_NO = 999
REV_AT_EPOCH   = 33
BSTAR          = .53844E-3
MEAN_MOTION_DOT = .1402377E-1
MEAN_MOTION_DDOT = .43663E-5

