CZ-5 R/B                
1 67227U 25306B   25354.80698343  .00001201  00000+0  48546-3 0  9993
2 67227  16.4229 298.9498 7578822 179.0262 184.9269  1.92163474    23
QPS-SAR-15              
1 67228U 25307A   25358.63400724  .00005837  00000+0  51259-3 0  9998
2 67228  42.0067 105.1986 0010127 288.6149  71.3576 14.97075685   501
ELECTRON KICK STAGE R/B 
1 67229U 25307B   25358.57516553  .00454501  61388-4  14822-2 0  9991
2 67229  42.0011 103.8717 0245566 260.0320  97.2731 15.55758318   517
ELECTRON R/B            
1 67230U 25307C   25355.36249005  .00071881  81069-5  20248-3 0  9997
2 67230  41.9820 123.1026 0261408 268.1410  88.9482 15.55087105    19
2025-308A               
1 67231U 25308A   25359.10164670  .01402377  43663-5  53844-3 0  9994
2 67231  69.7078  57.7078 0024141 150.5925 209.6660 16.23030612   330
